NORAD_CAT_ID,OBJECT_NAME,OBJECT_TYPE,EPOCH,MEAN_MOTION,ECCENTRICITY,INCLINATION,RA_OF_ASC_NODE,ARG_OF_PERICENTER,MEAN_ANOMALY,BSTAR,MEAN_MOTION_DOT,MEAN_MOTION_DDOT,TLE_LINE0,TLE_LINE1,TLE_LINE2,SEMIMAJOR_AXIS,PERIOD,APOGEE,PERIGEE,DECAYED
50207.0,STARLINK-3262,PAYLOAD,2024-05-17 22:13:10,15.08853071,0.0001729,53.2168,325.405,83.2853,276.8336,0.00052087,8.014e-05,0.0,0 STARLINK-3262,1 50207U 21125BD  24138.92582158  .00008014  00000-0  52087-3 0  9991,2 50207  53.2168 325.4050 0001729  83.2853 276.8336 15.08853071134975,6917.84,95.437,540.902,538.509,0.0
50207.0,STARLINK-3262,PAYLOAD,2024-05-18 22:03:56,15.08878002,0.0001122,53.2175,320.9428,100.4625,259.6494,0.0005836,9.022e-05,0.0,0 STARLINK-3262,1 50207U 21125BD  24139.91940628  .00009022  00000-0  58360-3 0  9991,2 50207  53.2175 320.9428 0001122 100.4625 259.6494 15.08878002135121,6917.764,95.435,540.405,538.853,0.0
50207.0,STARLINK-3262,PAYLOAD,2024-05-19 12:22:25,15.08833559,0.0001735,53.2164,318.268,85.0982,275.0208,-0.00042083,-6.978e-05,0.0,0 STARLINK-3262,1 50207U 21125BD  24140.51557441 -.00006978  00000-0 -42083-3 0  9990,2 50207  53.2164 318.2680 0001735  85.0982 275.0208 15.08833559135216,6917.9,95.438,540.965,538.565,0.0
50207.0,STARLINK-3262,PAYLOAD,2024-05-20 10:37:50,15.08832602,9.36e-05,53.2172,314.1043,49.8369,310.2705,0.00011323,1.514e-05,0.0,0 STARLINK-3262,1 50207U 21125BD  24141.44294369  .00001514  00000-0  11323-3 0  9992,2 50207  53.2172 314.1043 0000936  49.8369 310.2705 15.08832602135359,6917.903,95.438,540.416,539.12,0.0
50207.0,STARLINK-3262,PAYLOAD,2024-05-20 18:34:45,15.08856029,0.0001089,53.2177,312.6206,58.2671,301.8427,0.0012077,0.00018993,0.0,0 STARLINK-3262,1 50207U 21125BD  24141.77414188  .00018993  00000-0  12077-2 0  9996,2 50207  53.2177 312.6206 0001089  58.2671 301.8427 15.08856029135400,6917.831,95.437,540.45,538.943,0.0
50207.0,STARLINK-3262,PAYLOAD,2024-05-21 18:25:32,15.08862749,9.64e-05,53.2173,308.1594,55.1518,304.9565,0.00075928,0.00011824,0.0,0 STARLINK-3262,1 50207U 21125BD  24142.76773568  .00011824  00000-0  75928-3 0  9997,2 50207  53.2173 308.1594 0000964  55.1518 304.9565 15.08862749135552,6917.811,95.436,540.343,539.009,0.0
50207.0,STARLINK-3262,PAYLOAD,2024-05-21 21:36:18,15.08871119,8.32e-05,53.217,307.5641,63.6151,296.4927,0.0010313,0.00016177,0.0,0 STARLINK-3262,1 50207U 21125BD  24142.90021232  .00016177  00000-0  10313-2 0  9999,2 50207  53.2170 307.5641 0000832  63.6151 296.4927 15.08871119135576,6917.785,95.436,540.226,539.075,0.0
50207.0,STARLINK-3262,PAYLOAD,2024-05-22 19:51:42,15.08839682,0.0001082,53.2163,303.393,146.7614,213.3447,0.00059959,9.267e-05,0.0,0 STARLINK-3262,1 50207U 21125BD  24143.82757606  .00009267  00000-0  59959-3 0  9994,2 50207  53.2163 303.3930 0001082 146.7614 213.3447 15.08839682135718,6917.881,95.438,540.495,538.998,0.0
50207.0,STARLINK-3262,PAYLOAD,2024-05-23 18:07:06,15.08845539,0.0001052,53.2178,299.2359,80.4654,279.6457,0.00033349,5.024e-05,0.0,0 STARLINK-3262,1 50207U 21125BD  24144.75494031  .00005024  00000-0  33349-3 0  9999,2 50207  53.2178 299.2359 0001052  80.4654 279.6457 15.08845539135856,6917.863,95.437,540.456,539.001,0.0
50207.0,STARLINK-3262,PAYLOAD,2024-05-24 10:00:58,15.08844916,9.19e-05,53.218,296.2652,88.448,271.6617,0.00031799,4.777e-05,0.0,0 STARLINK-3262,1 50207U 21125BD  24145.41734142  .00004777  00000-0  31799-3 0  9994,2 50207  53.2180 296.2652 0000919  88.4480 271.6617 15.08844916135957,6917.865,95.437,540.366,539.095,0.0
50207.0,STARLINK-3262,PAYLOAD,2024-05-24 14:47:07,15.08847084,8.69e-05,53.2175,295.375,73.1099,286.9988,0.00040741,6.203e-05,0.0,0 STARLINK-3262,1 50207U 21125BD  24145.61606111  .00006203  00000-0  40741-3 0  9993,2 50207  53.2175 295.3750 0000869  73.1099 286.9988 15.08847084135983,6917.859,95.437,540.325,539.123,0.0
50207.0,STARLINK-3262,PAYLOAD,2024-05-24 16:22:30,15.08849201,9.52e-05,53.2167,295.0774,68.6618,291.4476,0.00041357,6.302e-05,0.0,0 STARLINK-3262,1 50207U 21125BD  24145.68230054  .00006302  00000-0  41357-3 0  9993,2 50207  53.2167 295.0774 0000952  68.6618 291.4476 15.08849201135993,6917.852,95.437,540.376,539.059,0.0
50207.0,STARLINK-3262,PAYLOAD,2024-05-25 14:37:55,15.08836635,9.83e-05,53.2179,290.9105,76.6725,283.4377,3.5726e-05,2.81e-06,0.0,0 STARLINK-3262,1 50207U 21125BD  24146.60966595  .00000281  00000-0  35726-4 0  9996,2 50207  53.2179 290.9105 0000983  76.6725 283.4377 15.08836635136135,6917.891,95.438,540.436,539.076,0.0
50207.0,STARLINK-3262,PAYLOAD,2024-05-25 19:24:04,15.08837781,9.09e-05,53.2173,290.0198,56.3824,303.7254,0.00016358,2.316e-05,0.0,0 STARLINK-3262,1 50207U 21125BD  24146.80838730  .00002316  00000-0  16358-3 0  9997,2 50207  53.2173 290.0198 0000909  56.3824 303.7254 15.08837781136161,6917.887,95.438,540.381,539.123,0.0
50207.0,STARLINK-3262,PAYLOAD,2024-05-26 14:28:42,15.08844015,9.64e-05,53.217,286.4516,59.6771,300.4317,0.00035638,5.389e-05,0.0,0 STARLINK-3262,1 50207U 21125BD  24147.60326898  .00005389  00000-0  35638-3 0  9998,2 50207  53.2170 286.4516 0000964  59.6771 300.4317 15.08844015136284,6917.868,95.437,540.4,539.066,0.0
50207.0,STARLINK-3262,PAYLOAD,2024-05-26 16:04:05,15.08847561,9.67e-05,53.2176,286.1535,62.3808,297.7282,0.00043247,6.603e-05,0.0,0 STARLINK-3262,1 50207U 21125BD  24147.66950784  .00006603  00000-0  43247-3 0  9996,2 50207  53.2176 286.1535 0000967  62.3808 297.7282 15.08847561136292,6917.857,95.437,540.391,539.053,0.0
50207.0,STARLINK-3262,PAYLOAD,2024-05-27 12:44:07,15.08839683,0.0001329,53.2187,282.2884,62.7574,297.3554,0.00045298,6.929e-05,0.0,0 STARLINK-3262,1 50207U 21125BD  24148.53064558  .00006929  00000-0  45298-3 0  9997,2 50207  53.2187 282.2884 0001329  62.7574 297.3554 15.08839683136424,6917.881,95.438,540.666,538.827,0.0
50207.0,STARLINK-3262,PAYLOAD,2024-05-27 14:19:31,15.08835619,0.000196,53.2191,281.9918,36.9624,323.1502,0.00052959,8.149e-05,0.0,0 STARLINK-3262,1 50207U 21125BD  24148.59688948  .00008149  00000-0  52959-3 0  9996,2 50207  53.2191 281.9918 0001960  36.9624 323.1502 15.08835619136430,6917.894,95.438,541.115,538.403,0.0
50207.0,STARLINK-3262,PAYLOAD,2024-05-27 15:54:54,15.08844813,0.0001394,53.2187,281.6935,91.9901,268.1251,0.0006807,0.00010563,0.0,0 STARLINK-3262,1 50207U 21125BD  24148.66312532  .00010563  00000-0  68070-3 0  9991,2 50207  53.2187 281.6935 0001394  91.9901 268.1251 15.08844813136447,6917.866,95.437,540.695,538.766,0.0
50207.0,STARLINK-3262,PAYLOAD,2024-05-28 12:34:53,15.08874747,0.0001175,53.2175,277.8279,79.4988,280.6136,0.00066396,0.00010305,0.0,0 STARLINK-3262,1 50207U 21125BD  24149.52423107  .00010305  00000-0  66396-3 0  9991,2 50207  53.2175 277.8279 0001175  79.4988 280.6136 15.08874747136579,6917.774,95.435,540.452,538.826,0.0
50207.0,STARLINK-3262,PAYLOAD,2024-05-28 14:10:16,15.08878236,0.0001193,53.2178,277.5316,84.3639,275.7489,0.00075093,0.00011696,0.0,0 STARLINK-3262,1 50207U 21125BD  24149.59046911  .00011696  00000-0  75093-3 0  9990,2 50207  53.2178 277.5316 0001193  84.3639 275.7489 15.08878236136583,6917.764,95.435,540.454,538.803,0.0
50207.0,STARLINK-3262,PAYLOAD,2024-05-28 15:45:39,15.08882283,0.0001212,53.2181,277.2354,88.4394,271.6737,0.00085463,0.00013355,0.0,0 STARLINK-3262,1 50207U 21125BD  24149.65670698  .00013355  00000-0  85463-3 0  9998,2 50207  53.2181 277.2354 0001212  88.4394 271.6737 15.08882283136590,6917.751,95.435,540.455,538.778,0.0
50207.0,STARLINK-3262,PAYLOAD,2024-05-29 12:25:40,15.08852427,0.0001249,53.2171,273.3653,77.0833,283.0299,0.00023457,3.449e-05,0.0,0 STARLINK-3262,1 50207U 21125BD  24150.51782676  .00003449  00000-0  23457-3 0  9993,2 50207  53.2171 273.3653 0001249  77.0833 283.0299 15.08852427136722,6917.842,95.437,540.571,538.843,0.0
50207.0,STARLINK-3262,PAYLOAD,2024-05-29 14:01:03,15.08851687,0.0001202,53.2169,273.0679,85.2068,274.9062,0.00025473,3.77e-05,0.0,0 STARLINK-3262,1 50207U 21125BD  24150.58406621  .00003770  00000-0  25473-3 0  9990,2 50207  53.2169 273.0679 0001202  85.2068 274.9062 15.08851687136739,6917.845,95.437,540.541,538.878,0.0
50207.0,STARLINK-3262,PAYLOAD,2024-05-29 15:36:26,15.08846322,0.0001334,53.2171,272.7716,83.9707,276.1437,0.0001471,2.054e-05,0.0,0 STARLINK-3262,1 50207U 21125BD  24150.65030749  .00002054  00000-0  14710-3 0  9998,2 50207  53.2171 272.7716 0001334  83.9707 276.1437 15.08846322136742,6917.861,95.437,540.649,538.803,0.0
50207.0,STARLINK-3262,PAYLOAD,2024-05-30 13:51:50,15.08853455,0.0001254,53.2164,268.6107,83.5274,276.5861,0.00032126,4.83e-05,0.0,0 STARLINK-3262,1 50207U 21125BD  24151.57766514  .00004830  00000-0  32126-3 0  9991,2 50207  53.2164 268.6107 0001254  83.5274 276.5861 15.08853455136883,6917.839,95.437,540.572,538.837,0.0
50207.0,STARLINK-3262,PAYLOAD,2024-05-30 15:27:13,15.08856475,0.000135,53.217,268.3134,85.054,275.0606,0.0004285,6.541e-05,0.0,0 STARLINK-3262,1 50207U 21125BD  24151.64390445  .00006541  00000-0  42850-3 0  9991,2 50207  53.2170 268.3134 0001350  85.0540 275.0606 15.08856475136894,6917.83,95.437,540.629,538.761,0.0
50207.0,STARLINK-3262,PAYLOAD,2024-05-31 12:07:14,15.08852239,0.0001549,53.2166,264.4483,77.8732,282.2434,0.00042876,6.545e-05,0.0,0 STARLINK-3262,1 50207U 21125BD  24152.50502702  .00006545  00000-0  42876-3 0  9990,2 50207  53.2166 264.4483 0001549  77.8732 282.2434 15.08852239137024,6917.843,95.437,540.78,538.636,0.0
50207.0,STARLINK-3262,PAYLOAD,2024-05-31 13:42:37,15.08853367,0.0001472,53.2168,264.1508,82.31,277.8059,0.00044116,6.743e-05,0.0,0 STARLINK-3262,1 50207U 21125BD  24152.57126615  .00006743  00000-0  44116-3 0  9991,2 50207  53.2168 264.1508 0001472  82.3100 277.8059 15.08853367137033,6917.84,95.437,540.723,538.686,0.0
50207.0,STARLINK-3262,PAYLOAD,2024-06-01 00:50:19,15.08843795,0.0001471,53.2164,262.069,81.6626,278.4533,0.00017602,2.515e-05,0.0,0 STARLINK-3262,1 50207U 21125BD  24153.03494776  .00002515  00000-0  17602-3 0  9992,2 50207  53.2164 262.0690 0001471  81.6626 278.4533 15.08843795137108,6917.869,95.437,540.751,538.716,0.0
